[{"OBJECT_NAME":"STARLINK-3305","OBJECT_ID":"2021-125L","EPOCH":"2026-03-09T16:58:35.739840","MEAN_MOTION":15.08841386,"ECCENTRICITY":0.00010979,"INCLINATION":53.2167,"RA_OF_ASC_NODE":248.9744,"ARG_OF_PERICENTER":91.567,"MEAN_ANOMALY":268.5448,"EPHEMERIS_TYPE":0,"CLASSIFICATION_TYPE":"U","NORAD_CAT_ID":50166,"ELEMENT_SET_NO":999,"REV_AT_EPOCH":23659,"BSTAR":-0.00018218027,"MEAN_MOTION_DOT":-3.186e-5,"MEAN_MOTION_DDOT":0},{"OBJECT_NAME":"CZ-4B DEB","OBJECT_ID":"2008-053L","EPOCH":"2026-03-08T19:52:33.417984","MEAN_MOTION":15.09778257,"ECCENTRICITY":0.00077037,"INCLINATION":97.7892,"RA_OF_ASC_NODE":87.441,"ARG_OF_PERICENTER":237.5543,"MEAN_ANOMALY":122.4941,"EPHEMERIS_TYPE":0,"CLASSIFICATION_TYPE":"U","NORAD_CAT_ID":36290,"ELEMENT_SET_NO":999,"REV_AT_EPOCH":71411,"BSTAR":0.00021001,"MEAN_MOTION_DOT":3.326e-5,"MEAN_MOTION_DDOT":0}]
